SWIFT                   
1 28485U 04047A   26195.51335693  .00043330  00000+0  31959-3 0  9992
2 28485  20.5530 333.6864 0002053  17.5678 342.4839 15.71113940191164
